ONEWEB-0326             
1 49195U 21083K   22249.48979404  .00000109  00000+0  24311-3 0  9999
2 49195  87.9092 249.5378 0001801 111.2241 248.9084 13.18686349 48168
ONEWEB-0327             
1 49196U 21083L   22249.47429719 -.00000476  00000+0 -12402-2 0  9994
2 49196  87.9107 249.5219 0001936 109.5508 250.5833 13.18684331 48187
ONEWEB-0328             
1 49197U 21083M   22249.49338200  .00000423  00000+0  11235-2 0  9994
2 49197  87.8961 234.3020 0001801  88.1409 271.9927 13.13472102 49784
ONEWEB-0331             
1 49198U 21083N   22249.48514590  .00000094  00000+0  20654-3 0  9992
2 49198  87.9104 249.5629 0001808  99.7801 260.3536 13.18684019 48176
ONEWEB-0333             
1 49199U 21083P   22249.48810516  .00000394  00000+0  10443-2 0  9997
2 49199  87.8958 234.3024 0002156  79.7270 280.4102 13.13471200 49791
ONEWEB-0334             
1 49200U 21083Q   22249.58334491 -.00030919  00000+0 -31991-2 0  9993
2 49200  87.2077 201.6493 0004924  59.8419  55.9646 14.90367235 54529
ONEWEB-0335             
1 49201U 21083R   22249.48386809  .00000372  00000+0  98443-3 0  9997
2 49201  87.8949 234.2986 0001721  89.5037 270.6289 13.13471074 49806
ONEWEB-0336             
1 49202U 21083S   22249.52829485 -.00000175  00000+0 -51482-3 0  9990
2 49202  87.8959 234.2899 0002169  82.2263 277.9112 13.13472188 49801
ONEWEB-0337             
1 49203U 21083T   22249.47537242  .00000209  00000+0  53768-3 0  9997
2 49203  87.8952 234.3021 0001760  86.8444 273.2887 13.13470604 49797
ONEWEB-0338             
1 49204U 21083U   22249.58334491 -.00028841  00000+0 -29823-2 0  9999
2 49204  87.2136 201.9167 0005299  78.1498 303.9962 14.90380453  1309
ONEWEB-0339             
1 49205U 21083V   22249.47114732  .00000120  00000+0  29234-3 0  9997
2 49205  87.8959 234.3016 0001843  72.4182 287.7148 13.13472739 49771
ONEWEB-0340             
1 49206U 21083W   22249.47276800  .00000013  00000+0 -66662-6 0  9994
2 49206  87.9096 249.5556 0001816  90.7518 269.3822 13.18686944 48132
ONEWEB-0341             
1 49207U 21083X   22249.48048865  .00001210  00000+0  30343-2 0  9996
2 49207  87.9115 249.4845 0001259  55.1186 305.0064 13.18700499 48152
ONEWEB-0342             
1 49208U 21083Y   22249.58334491 -.00031898  00000+0 -32985-2 0  9992
2 49208  87.2098 201.7413 0005171  78.9152 114.8262 14.90394177 54528
ONEWEB-0343             
1 49209U 21083Z   22249.47741526  .00000022  00000+0  22468-4 0  9992
2 49209  87.9107 249.5232 0001524  43.8077 316.3176 13.18685703 48209
ONEWEB-0344             
1 49210U 21083AA  22249.51560743  .00000079  00000+0  18121-3 0  9991
2 49210  87.8960 234.2967 0001993  90.0961 270.0397 13.13469360 49788
ONEWEB-0345             
1 49211U 21083AB  22249.45739713 -.00000213  00000+0 -61788-3 0  9999
2 49211  87.8946 234.2957 0001274 100.6213 259.5060 13.13472422 49784
ONEWEB-0346             
1 49212U 21083AC  22249.48359455  .00000089  00000+0  19286-3 0  9999
2 49212  87.9104 249.5132 0001814 106.1617 253.9715 13.18684649 48140
ONEWEB-0348             
1 49213U 21083AD  22249.58334491 -.00032194  00000+0 -33296-2 0  9994
2 49213  87.2123 201.8542 0005090  68.1672  80.9384 14.90389780 54527
ONEWEB-0350             
1 49214U 21083AE  22249.46691200  .00000018  00000+0  15669-4 0  9990
2 49214  87.8952 234.3181 0001568  95.3749 264.7559 13.13474101 49815
ONEWEB-0351             
1 49215U 21083AF  22249.58334491 -.00030604  00000+0 -31660-2 0  9993
2 49215  87.2052 201.5543 0004540  62.2430 207.2149 14.90373873  1301
ONEWEB-0352             
1 49216U 21083AG  22249.52406637 -.00000248  00000+0 -71329-3 0  9998
2 49216  87.8956 234.2903 0002218  78.6665 281.4713 13.13471238 49913
ONEWEB-0354             
1 49217U 21083AH  22249.58334491 -.00032133  00000+0 -33238-2 0  9997
2 49217  87.2108 201.7734 0004179  75.4540  91.0368 14.90386476 54544
ONEWEB-0355             
1 49218U 21083AJ  22249.47963954  .00000364  00000+0  96177-3 0  9999
2 49218  87.8960 234.3034 0001792  76.7383 283.3946 13.13471962 49786
ONEWEB-0357             
1 49219U 21083AK  22249.58334491 -.00030767  00000+0 -31810-2 0  9994
2 49219  87.2103 201.7627 0005620  77.8738  29.0574 14.90393236 54518
ONEWEB-0332             
1 49279U 21090A   22249.58334491 -.00026940  00000+0 -72906-1 0  9996
2 49279  87.9093 203.9559 0002545  68.9717 280.2419 13.14508623  1309
ONEWEB-0347             
1 49280U 21090B   22249.58334491 -.00020007  00000+0 -75413-2 0  9993
2 49280  87.6978 195.1675 0001256 171.3504 355.8051 14.31681813 47845
ONEWEB-0349             
1 49281U 21090C   22249.58334491 -.00006639  00000+0 -16372-1 0  9997
2 49281  87.9355 188.9324 0001578  84.5322  72.8248 13.20768321 49000
ONEWEB-0353             
1 49282U 21090D   22249.58334491 -.00025328  00000+0 -68535-1 0  9992
2 49282  87.9092 203.9913 0002582  75.9366 313.2628 13.14507061  1309
ONEWEB-0356             
1 49283U 21090E   22249.58334491 -.00006557  00000+0 -16171-1 0  9995
2 49283  87.9375 188.9088 0002275 107.9453  59.4223 13.20769619 49006
ONEWEB-0358             
1 49284U 21090F   22249.58334491  .00000014  00000+0  00000+0 0  9998
2 49284  87.9757 188.8015 0001776  19.4608 163.5367 13.40388394 49717
ONEWEB-0359             
1 49285U 21090G   22249.58334491  .00000013  00000+0  00000+0 0  9998
2 49285  87.9837 188.8415 0001887  66.3948 358.6888 13.36833208 49698
ONEWEB-0360             
1 49286U 21090H   22249.58334491 -.00006442  00000+0 -15887-1 0  9994
2 49286  87.9360 188.8568 0002015  81.0956  16.1947 13.20770243 49027
ONEWEB-0361             
1 49287U 21090J   22249.58334491 -.00006463  00000+0 -15938-1 0  9995
2 49287  87.9356 188.8925 0002075  80.8833  96.4664 13.20771317 49016
ONEWEB-0362             
1 49288U 21090K   22249.58334491 -.00042571  00000+0 -10684+0 0  9997
2 49288  87.9237 219.0833 0002526  84.0084 118.3716 13.19741601  1308
ONEWEB-0363             
1 49289U 21090L   22249.58334491 -.00006562  00000+0 -16181-1 0  9998
2 49289  87.9363 188.8915 0001996  89.1590  18.2117 13.20773599 49028
ONEWEB-0364             
1 49290U 21090M   22249.58334491 -.00016761  00000+0 -68051-2 0  9996
2 49290  87.6917 195.3910 0001923 114.5442 297.4537 14.27873677 49066
ONEWEB-0365             
1 49291U 21090N   22249.58334491 -.00043187  00000+0 -10839+0 0  9997
2 49291  87.9238 219.1676 0001989  81.2591  91.7860 13.19743857  1302
ONEWEB-0366             
1 49292U 21090P   22249.58334491 -.00026260  00000+0 -71059-1 0  9994
2 49292  87.9101 203.9765 0002490  82.4977 326.6848 13.14510563  1308
ONEWEB-0367             
1 49293U 21090Q   22249.58334491 -.00006670  00000+0 -16450-1 0  9992
2 49293  87.9386 188.9320 0002290  79.0010  38.3811 13.20769357 49012
ONEWEB-0368             
1 49294U 21090R   22249.58334491 -.00020311  00000+0 -82568-2 0  9995
2 49294  87.6943 195.3755 0000118  14.8814 156.3034 14.27827325 49071
ONEWEB-0369             
1 49295U 21090S   22249.58334491 -.00042931  00000+0 -10775+0 0  9996
2 49295  87.9247 219.1346 0002426  83.2922 104.4409 13.19740371  1306
ONEWEB-0370             
1 49296U 21090T   22249.58334491 -.00006436  00000+0 -15874-1 0  9994
2 49296  87.9372 188.8936 0002184  82.7044   4.6956 13.20768822 49058
ONEWEB-0371             
1 49297U 21090U   22249.58334491 -.00043270  00000+0 -10860+0 0  9990
2 49297  87.9239 219.0656 0002017  84.4240  73.8957 13.19742831  1304
ONEWEB-0372             
1 49298U 21090V   22249.58334491 -.00006634  00000+0 -16360-1 0  9997
2 49298  87.9362 188.8919 0002626  80.4779  46.8770 13.20767986 49020
ONEWEB-0373             
1 49299U 21090W   22249.58334491 -.00015636  00000+0 -58912-2 0  9990
2 49299  87.6939 195.0949 0002619 289.0559  88.9320 14.31681525 49133
ONEWEB-0374             
1 49300U 21090X   22249.58334491 -.00026343  00000+0 -70706-1 0  9994
2 49300  87.9095 203.9892 0002388  83.0116 348.1956 13.15067148  1305
ONEWEB-0375             
1 49301U 21090Y   22249.58334491  .00000013  00000+0  00000+0 0  9997
2 49301  87.9899 188.8202 0001379 244.0115 137.0411 13.35397617 49695
ONEWEB-0376             
1 49302U 21090Z   22249.58334491 -.00043258  00000+0 -10857+0 0  9999
2 49302  87.9241 219.1460 0002361  79.5380  86.1087 13.19742645  1304
ONEWEB-0377             
1 49303U 21090AA  22249.58334491 -.00005661  00000+0 -11355-1 0  9992
2 49303  87.9860 188.8370 0000852  80.6333 220.1810 13.34546757 49677
ONEWEB-0378             
1 49304U 21090AB  22249.58334491 -.00006062  00000+0 -14952-1 0  9995
2 49304  87.9395 188.9327 0002362  80.5679 146.7544 13.20767980 48982
ONEWEB-0379             
1 49305U 21090AC  22249.58334491 -.00027455  00000+0 -74296-1 0  9992
2 49305  87.9102 203.9720 0002348  79.7493  59.5778 13.14517060  1302
ONEWEB-0380             
1 49306U 21090AD  22249.58334491 -.00043072  00000+0 -10810+0 0  9996
2 49306  87.9241 219.1525 0001886  81.6096  98.7539 13.19744089  1304
ONEWEB-0381             
1 49307U 21090AE  22249.58334491 -.00006667  00000+0 -16442-1 0  9995
2 49307  87.9368 188.9131 0002109  85.0594  52.2838 13.20771185 49017
ONEWEB-0382             
1 49308U 21090AF  22249.58334491 -.00006397  00000+0 -15777-1 0  9996
2 49308  87.9362 188.8998 0002056  94.1767  93.2190 13.20766930 49014
ONEWEB-0383             
1 49309U 21090AG  22249.58334491 -.00027847  00000+0 -74751-1 0  9997
2 49309  87.9102 203.9124 0002394  83.9980  77.0220 13.15069566  1304
ONEWEB-0384             
1 49310U 21090AH  22249.58334491 -.00006345  00000+0 -15648-1 0  9999
2 49310  87.9362 188.9128 0002068 107.1321  90.3497 13.20770439 49025
ONEWEB-0385             
1 49311U 21090AJ  22249.58334491 -.00006111  00000+0 -15072-1 0  9992
2 49311  87.9374 188.8892 0002224  92.6148 124.7161 13.20767444 49005
ONEWEB-0386             
1 49312U 21090AK  22249.58334491 -.00006641  00000+0 -16379-1 0  9992
2 49312  87.9383 188.9065 0002445  90.0645  57.3597 13.20766107 49018
